{
    "links": {
        "self": "http://www.neowsapp.com/rest/v1/neo/3753095?api_key=iIulBulltgU6a56xZRHN4H3l9WmuAYTsLGpBGhQ2"
    },
    "id": "3753095",
    "neo_reference_id": "3753095",
    "name": "(2016 JM24)",
    "designation": "2016 JM24",
    "nasa_jpl_url": "http://ssd.jpl.nasa.gov/sbdb.cgi?sstr=3753095",
    "absolute_magnitude_h": 23.0,
    "estimated_diameter": {
        "kilometers": {
            "estimated_diameter_min": 0.0667659413,
            "estimated_diameter_max": 0.1492931834
        },
        "meters": {
            "estimated_diameter_min": 66.7659413495,
            "estimated_diameter_max": 149.2931834393
        },
        "miles": {
            "estimated_diameter_min": 0.0414864197,
            "estimated_diameter_max": 0.0927664547
        },
        "feet": {
            "estimated_diameter_min": 219.0483710172,
            "estimated_diameter_max": 489.807047955
        }
    },
    "is_potentially_hazardous_asteroid": false,
    "close_approach_data": [
        {
            "close_approach_date": "2016-04-19",
            "close_approach_date_full": "2016-Apr-19 13:31",
            "epoch_date_close_approach": 1461072660000,
            "relative_velocity": {
                "kilometers_per_second": "12.8690149073",
                "kilometers_per_hour": "46328.4536662793",
                "miles_per_hour": "28786.6994461389"
            },
            "miss_distance": {
                "astronomical": "0.1922609836",
                "lunar": "74.7895226204",
                "kilometers": "28761833.630664932",
                "miles": "17871774.6928907816"
            },
            "orbiting_body": "Earth"
        }
    ],
    "orbital_data": {
        "orbit_id": "4",
        "orbit_determination_date": "2017-04-06 08:25:58",
        "first_observation_date": "2016-05-08",
        "last_observation_date": "2016-05-12",
        "data_arc_in_days": 4,
        "observations_used": 38,
        "orbit_uncertainty": "9",
        "minimum_orbit_intersection": ".0792984",
        "jupiter_tisserand_invariant": "4.964",
        "epoch_osculation": "2457517.5",
        "eccentricity": ".4117963307897937",
        "semi_major_axis": "1.262511066106764",
        "inclination": "20.21029123785318",
        "ascending_node_longitude": "49.76455454078642",
        "orbital_period": "518.144887155989",
        "perihelion_distance": ".7426136415024878",
        "perihelion_argument": "63.60691740288642",
        "aphelion_distance": "1.78240849071104",
        "perihelion_time": "2457421.790702747984",
        "mean_anomaly": "66.49751423746632",
        "mean_motion": ".6947863598075436",
        "equinox": "J2000",
        "orbit_class": {
            "orbit_class_type": "APO",
            "orbit_class_description": "Near-Earth asteroid orbits which cross the Earth’s orbit similar to that of 1862 Apollo",
            "orbit_class_range": "a (semi-major axis) > 1.0 AU; q (perihelion) < 1.017 AU"
        }
    },
    "is_sentry_object": false
}